NORAD_CAT_ID,OBJECT_NAME,OBJECT_TYPE,EPOCH,MEAN_MOTION,ECCENTRICITY,INCLINATION,RA_OF_ASC_NODE,ARG_OF_PERICENTER,MEAN_ANOMALY,BSTAR,MEAN_MOTION_DOT,MEAN_MOTION_DDOT,TLE_LINE0,TLE_LINE1,TLE_LINE2,SEMIMAJOR_AXIS,PERIOD,APOGEE,PERIGEE,DECAYED
54013.0,STARLINK-5098,PAYLOAD,2024-07-06 19:47:05,15.0882966,0.0001651,53.2184,66.358,93.1813,266.9368,-5.416e-05,-1.15e-05,0.0,0 STARLINK-5098,1 54013U 22125BB  24188.82437071 -.00001150  00000-0 -54160-4 0  9999,2 54013  53.2184  66.3580 0001651  93.1813 266.9368 15.08829660 97432,6917.912,95.438,540.919,538.635,0.0
54013.0,STARLINK-5098,PAYLOAD,2024-07-06 22:57:51,15.0883294,0.0001485,53.2189,65.765,95.0375,265.0787,-1.7553e-05,-5.67e-06,0.0,0 STARLINK-5098,1 54013U 22125BB  24188.95684819 -.00000567  00000-0 -17553-4 0  9993,2 54013  53.2189  65.7650 0001485  95.0375 265.0787 15.08832940 97404,6917.902,95.438,540.794,538.74,0.0
54013.0,STARLINK-5098,PAYLOAD,2024-07-07 08:30:10,15.08838352,0.0001511,53.219,63.9806,94.5909,265.5256,-4.3591e-05,-9.82e-06,0.0,0 STARLINK-5098,1 54013U 22125BB  24189.35428610 -.00000982  00000-0 -43591-4 0  9995,2 54013  53.2190  63.9806 0001511  94.5909 265.5256 15.08838352 97517,6917.885,95.438,540.796,538.705,0.0
54013.0,STARLINK-5098,PAYLOAD,2024-07-08 08:20:57,15.08842206,0.000128,53.2176,59.5154,85.5427,274.5711,2.7016e-05,1.42e-06,0.0,0 STARLINK-5098,1 54013U 22125BB  24190.34788244  .00000142  00000-0  27016-4 0  9998,2 54013  53.2176  59.5154 0001280  85.5427 274.5711 15.08842206 97616,6917.874,95.437,540.624,538.853,0.0
54013.0,STARLINK-5098,PAYLOAD,2024-07-08 21:04:02,15.08837811,0.0001614,53.2192,57.132,86.6322,273.4855,7.3876e-05,8.88e-06,0.0,0 STARLINK-5098,1 54013U 22125BB  24190.87780585  .00000888  00000-0  73876-4 0  9998,2 54013  53.2192  57.1320 0001614  86.6322 273.4855 15.08837811 97747,6917.887,95.438,540.869,538.636,0.0
54013.0,STARLINK-5098,PAYLOAD,2024-07-08 22:39:25,15.08842101,0.0001405,53.2182,56.8399,85.7561,274.3591,8.4395e-05,1.056e-05,0.0,0 STARLINK-5098,1 54013U 22125BB  24190.94404310  .00001056  00000-0  84395-4 0  9991,2 54013  53.2182  56.8399 0001405  85.7561 274.3591 15.08842101 97702,6917.874,95.437,540.711,538.767,0.0
54013.0,STARLINK-5098,PAYLOAD,2024-07-09 14:33:17,15.08837038,0.0001369,53.2182,53.8692,88.6828,271.4321,2.7077e-05,1.43e-06,0.0,0 STARLINK-5098,1 54013U 22125BB  24191.60644818  .00000143  00000-0  27077-4 0  9994,2 54013  53.2182  53.8692 0001369  88.6828 271.4321 15.08837038 97805,6917.889,95.438,540.702,538.807,0.0
54013.0,STARLINK-5098,PAYLOAD,2024-07-09 22:30:12,15.08843988,0.0001375,53.2177,52.3819,88.3378,271.7772,-3.1696e-05,-7.92e-06,0.0,0 STARLINK-5098,1 54013U 22125BB  24191.93764627 -.00000792  00000-0 -31696-4 0  9995,2 54013  53.2177  52.3819 0001375  88.3378 271.7772 15.08843988 97857,6917.868,95.437,540.684,538.782,0.0
54013.0,STARLINK-5098,PAYLOAD,2024-07-10 14:24:04,15.08836612,0.0001518,53.218,49.4089,85.2283,274.8882,3.3402e-06,-2.35e-06,0.0,0 STARLINK-5098,1 54013U 22125BB  24192.60005056 -.00000235  00000-0  33402-5 0  9993,2 54013  53.2180  49.4089 0001518  85.2283 274.8882 15.08836612 97950,6917.891,95.438,540.806,538.706,0.0
54013.0,STARLINK-5098,PAYLOAD,2024-07-10 20:45:36,15.08842033,0.0001445,53.2184,48.2203,85.3374,274.7784,-3.8615e-05,-9.03e-06,0.0,0 STARLINK-5098,1 54013U 22125BB  24192.86500919 -.00000903  00000-0 -38615-4 0  9992,2 54013  53.2184  48.2203 0001445  85.3374 274.7784 15.08842033 97998,6917.874,95.437,540.739,538.74,0.0
54013.0,STARLINK-5098,PAYLOAD,2024-07-10 23:56:22,15.08846824,0.0001404,53.2188,47.6236,88.9677,271.1476,5.7883e-06,-1.96e-06,0.0,0 STARLINK-5098,1 54013U 22125BB  24192.99748342 -.00000196  00000-0  57883-5 0  9992,2 54013  53.2188  47.6236 0001404  88.9677 271.1476 15.08846824 98061,6917.86,95.437,540.696,538.753,0.0
54013.0,STARLINK-5098,PAYLOAD,2024-07-11 14:14:51,15.08840929,0.0001613,53.2158,44.9473,84.6877,275.4299,4.1923e-05,3.79e-06,0.0,0 STARLINK-5098,1 54013U 22125BB  24193.59364599  .00000379  00000-0  41923-4 0  9996,2 54013  53.2158  44.9473 0001613  84.6877 275.4299 15.08840929 98103,6917.878,95.437,540.858,538.627,0.0
54013.0,STARLINK-5098,PAYLOAD,2024-07-11 17:25:37,15.08839377,0.0001353,53.2178,44.3529,92.1969,267.9178,5.8083e-05,6.37e-06,0.0,0 STARLINK-5098,1 54013U 22125BB  24193.72612552  .00000637  00000-0  58083-4 0  9998,2 54013  53.2178  44.3529 0001353  92.1969 267.9178 15.08839377 98172,6917.882,95.438,540.683,538.811,0.0
54013.0,STARLINK-5098,PAYLOAD,2024-07-11 20:36:23,15.08841774,0.0001291,53.2178,43.7577,94.0981,266.0159,8.382e-05,1.046e-05,0.0,0 STARLINK-5098,1 54013U 22125BB  24193.85860271  .00001046  00000-0  83820-4 0  9997,2 54013  53.2178  43.7577 0001291  94.0981 266.0159 15.08841774 98144,6917.875,95.437,540.633,538.847,0.0
54013.0,STARLINK-5098,PAYLOAD,2024-07-11 23:47:09,15.08849004,0.0001296,53.2173,43.162,93.7946,266.3194,9.2291e-05,1.182e-05,0.0,0 STARLINK-5098,1 54013U 22125BB  24193.99107751  .00001182  00000-0  92291-4 0  9992,2 54013  53.2173  43.1620 0001296  93.7946 266.3194 15.08849004 98218,6917.853,95.437,540.614,538.821,0.0
54013.0,STARLINK-5098,PAYLOAD,2024-07-12 14:05:38,15.0883564,0.0001776,53.2185,40.4862,93.2306,266.8889,1.7303e-05,-1.3e-07,0.0,0 STARLINK-5098,1 54013U 22125BB  24194.58725041 -.00000013  00000-0  17303-4 0  9990,2 54013  53.2185  40.4862 0001776  93.2306 266.8889 15.08835640 98258,6917.894,95.438,540.987,538.53,0.0
54013.0,STARLINK-5098,PAYLOAD,2024-07-12 20:27:10,15.0884098,0.0001275,53.2183,39.2963,98.0174,262.0963,3.8489e-06,-2.27e-06,0.0,0 STARLINK-5098,1 54013U 22125BB  24194.85220755 -.00000227  00000-0  38489-5 0  9998,2 54013  53.2183  39.2963 0001275  98.0174 262.0963 15.08840980 98348,6917.877,95.437,540.624,538.86,0.0
54013.0,STARLINK-5098,PAYLOAD,2024-07-13 20:17:57,15.08843736,0.0001365,53.2191,34.8397,93.2649,266.8499,1.0016e-05,-1.29e-06,0.0,0 STARLINK-5098,1 54013U 22125BB  24195.84580791 -.00000129  00000-0  10016-4 0  9993,2 54013  53.2191  34.8397 0001365  93.2649 266.8499 15.08843736 98442,6917.869,95.437,540.678,538.79,0.0
54013.0,STARLINK-5098,PAYLOAD,2024-07-14 05:50:16,15.08842574,0.0001327,53.2187,33.0557,91.718,268.3964,-3.3161e-05,-8.16e-06,0.0,0 STARLINK-5098,1 54013U 22125BB  24196.24324971 -.00000816  00000-0 -33161-4 0  9994,2 54013  53.2187  33.0557 0001327  91.7180 268.3964 15.08842574 98552,6917.873,95.437,540.656,538.82,0.0
54013.0,STARLINK-5098,PAYLOAD,2024-07-14 20:08:44,15.08846467,0.0001322,53.2185,30.3775,91.3729,268.7415,0.00012962,1.776e-05,0.0,0 STARLINK-5098,1 54013U 22125BB  24196.83940339  .00001776  00000-0  12962-3 0  9990,2 54013  53.2185  30.3775 0001322  91.3729 268.7415 15.08846467 98596,6917.861,95.437,540.64,538.811,0.0
54013.0,STARLINK-5098,PAYLOAD,2024-07-15 13:38:00,15.0882819,0.0001402,53.2178,27.1032,74.5052,285.6094,-0.00010042,-1.885e-05,0.0,0 STARLINK-5098,1 54013U 22125BB  24197.56806295 -.00001885  00000-0 -10042-3 0  9993,2 54013  53.2178  27.1032 0001402  74.5052 285.6094 15.08828190 98706,6917.916,95.438,540.751,538.812,0.0
54013.0,STARLINK-5098,PAYLOAD,2024-07-15 19:59:32,15.08833175,0.0001671,53.2179,25.9143,75.8843,284.2335,-4.9505e-05,-1.076e-05,0.0,0 STARLINK-5098,1 54013U 22125BB  24197.83301940 -.00001076  00000-0 -49505-4 0  9999,2 54013  53.2179  25.9143 0001671  75.8843 284.2335 15.08833175 98797,6917.901,95.438,540.922,538.61,0.0
54013.0,STARLINK-5098,PAYLOAD,2024-07-16 05:31:51,15.08837483,0.0001653,53.2189,24.1316,84.935,275.1831,1.6512e-05,-2.5e-07,0.0,0 STARLINK-5098,1 54013U 22125BB  24198.23045549 -.00000025  00000-0  16512-4 0  9998,2 54013  53.2189  24.1316 0001653  84.9350 275.1831 15.08837483 98858,6917.888,95.438,540.897,538.61,0.0
54013.0,STARLINK-5098,PAYLOAD,2024-07-16 19:50:17,15.08861157,0.0001245,53.2182,21.456,96.8638,263.2496,0.0001311,1.8e-05,0.0,0 STARLINK-5098,1 54013U 22125BB  24198.82659472  .00001800  00000-0  13110-3 0  9990,2 54013  53.2182  21.4560 0001245  96.8638 263.2496 15.08861157 98894,6917.816,95.436,540.542,538.819,0.0
54013.0,STARLINK-5098,PAYLOAD,2024-07-17 11:44:10,15.0883185,0.0001559,53.2169,18.4859,92.2204,267.8967,0.00011754,1.583e-05,0.0,0 STARLINK-5098,1 54013U 22125BB  24199.48901537  .00001583  00000-0  11754-3 0  9995,2 54013  53.2169  18.4859 0001559  92.2204 267.8967 15.08831850 99041,6917.905,95.438,540.849,538.692,0.0
54013.0,STARLINK-5098,PAYLOAD,2024-07-17 19:41:06,15.08834509,0.0001384,53.2186,16.9967,88.1194,271.9956,5.3702e-05,5.67e-06,0.0,0 STARLINK-5098,1 54013U 22125BB  24199.82021772  .00000567  00000-0  53702-4 0  9998,2 54013  53.2186  16.9967 0001384  88.1194 271.9956 15.08834509 99049,6917.897,95.438,540.72,538.805,0.0
54013.0,STARLINK-5098,PAYLOAD,2024-07-18 11:34:58,15.08839952,0.000158,53.2192,14.0217,91.4298,268.6875,-1.883e-06,-3.18e-06,0.0,0 STARLINK-5098,1 54013U 22125BB  24200.48261830 -.00000318  00000-0 -18830-5 0  9994,2 54013  53.2192  14.0217 0001580  91.4298 268.6875 15.08839952 99144,6917.881,95.438,540.839,538.653,0.0
54013.0,STARLINK-5098,PAYLOAD,2024-07-18 17:56:30,15.08844722,0.0001369,53.2189,12.8333,95.1313,264.9835,6.085e-05,6.81e-06,0.0,0 STARLINK-5098,1 54013U 22125BB  24200.74757226  .00000681  00000-0  60850-4 0  9991,2 54013  53.2189  12.8333 0001369  95.1313 264.9835 15.08844722 99235,6917.866,95.437,540.678,538.784,0.0
54013.0,STARLINK-5098,PAYLOAD,2024-07-19 14:36:31,15.08837859,0.0001413,53.2182,8.9689,95.5911,264.5242,0.0001465,2.044e-05,0.0,0 STARLINK-5098,1 54013U 22125BB  24201.60869329  .00002044  00000-0  14650-3 0  9996,2 54013  53.2182   8.9689 0001413  95.5911 264.5242 15.08837859 99316,6917.887,95.438,540.729,538.774,0.0
54013.0,STARLINK-5098,PAYLOAD,2024-07-19 17:47:17,15.08843928,0.0001304,53.2193,8.372,98.796,261.318,0.00011081,1.476e-05,0.0,0 STARLINK-5098,1 54013U 22125BB  24201.74117074  .00001476  00000-0  11081-3 0  9997,2 54013  53.2193   8.3720 0001304  98.7960 261.3180 15.08843928 99338,6917.868,95.437,540.635,538.831,0.0
